[{"OBJECT_NAME":"STARLINK-2754","OBJECT_ID":"2021-044D","EPOCH":"2026-03-09T12:44:53.857824","MEAN_MOTION":15.30198326,"ECCENTRICITY":0.00013511,"INCLINATION":53.1598,"RA_OF_ASC_NODE":114.6224,"ARG_OF_PERICENTER":80.6419,"MEAN_ANOMALY":279.4735,"EPHEMERIS_TYPE":0,"CLASSIFICATION_TYPE":"U","NORAD_CAT_ID":48641,"ELEMENT_SET_NO":999,"REV_AT_EPOCH":26380,"BSTAR":-3.3018635e-5,"MEAN_MOTION_DOT":-1.337e-5,"MEAN_MOTION_DDOT":0},{"OBJECT_NAME":"SL-3 R\/B","OBJECT_ID":"1983-003B","EPOCH":"2026-03-09T21:31:00.897888","MEAN_MOTION":15.34640469,"ECCENTRICITY":0.00285789,"INCLINATION":81.155,"RA_OF_ASC_NODE":261.9078,"ARG_OF_PERICENTER":155.4571,"MEAN_ANOMALY":204.8036,"EPHEMERIS_TYPE":0,"CLASSIFICATION_TYPE":"U","NORAD_CAT_ID":13771,"ELEMENT_SET_NO":999,"REV_AT_EPOCH":35642,"BSTAR":0.00033440366,"MEAN_MOTION_DOT":0.00011405,"MEAN_MOTION_DDOT":0}]
